OBJECT_NAME,OBJECT_ID,EPOCH,MEAN_MOTION,ECCENTRICITY,INCLINATION,RA_OF_ASC_NODE,ARG_OF_PERICENTER,MEAN_ANOMALY,EPHEMERIS_TYPE,CLASSIFICATION_TYPE,NORAD_CAT_ID,ELEMENT_SET_NO,REV_AT_EPOCH,BSTAR,MEAN_MOTION_DOT,MEAN_MOTION_DDOT
STARLINK-34780,2025-165U,2026-06-25T17:14:04.620192,15.05644453,.0001571,97.3123,252.3978,154.3060,205.8246,0,U,65074,999,5104,-.22499E-3,-.3301E-4,0
STARLINK-34771,2025-167A,2026-06-25T12:12:05.086080,15.30214242,.000105,53.1597,243.3279,71.9038,288.2077,0,U,65078,999,5002,.64752E-3,.18876E-3,0
STARLINK-34634,2025-167B,2026-06-25T14:02:33.713952,15.34416612,.0001425,53.1585,241.6796,93.0344,267.0822,0,U,65079,999,5005,.16165E-2,.54668E-3,0
STARLINK-34267,2025-167C,2026-06-25T14:05:33.660960,15.34411101,.000127,53.1587,241.6921,71.6467,288.4673,0,U,65080,999,5127,.1206E-2,.40604E-3,0
STARLINK-34561,2025-167D,2026-06-25T12:01:26.480352,15.30213581,.0001133,53.1575,243.2802,124.9107,235.2001,0,U,65081,999,5127,.87936E-3,.25786E-3,0
STARLINK-34626,2025-167E,2026-06-25T14:07:53.302368,15.34406597,.0001158,53.1584,240.3053,81.2009,278.9125,0,U,65082,999,5007,.1001E-2,.33601E-3,0
STARLINK-34247,2025-167F,2026-06-25T10:47:09.129408,15.30214200,.0001183,53.1585,243.6703,76.6196,283.4937,0,U,65083,999,5001,.69935E-3,.2042E-3,0
STARLINK-34601,2025-167G,2026-06-25T14:04:50.853216,15.34403106,.0001192,53.1586,240.2069,75.7559,284.3576,0,U,65084,999,5006,.11365E-2,.38222E-3,0
STARLINK-34822,2025-167J,2026-06-25T13:59:11.270112,15.30231465,.0001235,53.1590,245.8707,85.5103,274.6038,0,U,65086,999,4999,.63955E-3,.18648E-3,0
STARLINK-34686,2025-167K,2026-06-25T13:54:38.594304,15.30217675,.0000964,53.1587,245.8524,76.7998,283.3111,0,U,65087,999,4999,.78553E-3,.22991E-3,0
STARLINK-34594,2025-167L,2026-06-25T13:50:05.000064,15.30221235,.0001017,53.1585,245.8333,90.5752,269.5365,0,U,65088,999,4999,.76864E-3,.22489E-3,0
STARLINK-34665,2025-167M,2026-06-25T12:11:28.207104,15.30217752,.0001376,53.1574,246.1148,137.1496,222.9612,0,U,65089,999,4998,.61388E-3,.17876E-3,0
STARLINK-34673,2025-167N,2026-06-25T13:40:58.031904,15.30210164,.0000953,53.1569,245.7920,305.4060,54.6851,0,U,65090,999,4999,.63647E-3,.18544E-3,0
STARLINK-34648,2025-167P,2026-06-25T20:00:01.999008,15.34392865,.0000854,53.1599,239.0983,60.3307,199.7619,0,U,65091,999,579,-.57146E-3,-.19629E-3,0
STARLINK-34640,2025-167Q,2026-06-25T13:34:53.444640,15.30210342,.0000974,53.1570,245.7615,106.4541,253.6566,0,U,65092,999,4999,.6717E-3,.19593E-3,0
STARLINK-34266,2025-167R,2026-06-25T20:10:58.678752,15.34746506,.0005189,53.1598,238.9456,39.2447,320.8931,0,U,65093,999,5011,-.28339E-2,-.96017E-3,0
STARLINK-34769,2025-167S,2026-06-25T20:00:01.999008,15.34394398,.0000952,53.1585,239.1894,78.1422,135.4487,0,U,65094,999,584,-.65907E-3,-.22573E-3,0
STARLINK-34768,2025-167T,2026-06-25T14:19:59.489184,15.34405643,.0000986,53.1582,240.2700,84.4174,275.6941,0,U,65095,999,5007,.80429E-3,.269E-3,0
STARLINK-34759,2025-167U,2026-06-25T11:09:22.257216,15.34418236,.0001679,53.1582,240.8643,92.4165,267.7030,0,U,65096,999,5005,.82227E-3,.27524E-3,0
STARLINK-34741,2025-167V,2026-06-25T11:06:20.621088,15.34410799,.000108,53.1586,240.8518,92.9151,267.1976,0,U,65097,999,5005,.70009E-3,.23359E-3,0
STARLINK-34764,2025-167W,2026-06-25T10:55:44.201280,15.34419677,.0001192,53.1584,244.3696,70.7933,289.3198,0,U,65098,999,5000,.84582E-3,.28327E-3,0
STARLINK-34815,2025-167X,2026-06-25T13:54:15.203232,15.34434895,.0001196,53.1583,243.7209,77.0071,283.1065,0,U,65099,999,5002,.80054E-3,.26798E-3,0
STARLINK-34814,2025-167Y,2026-06-25T14:21:30.328416,15.34404929,.0001308,53.1581,243.8391,78.2445,281.8704,0,U,65100,999,5002,.11832E-2,.39819E-3,0
STARLINK-34285,2025-167Z,2026-06-25T14:51:47.932128,15.34414701,.0001195,53.1574,243.9676,85.2896,274.8243,0,U,65101,999,5002,.61218E-3,.20373E-3,0
STARLINK-34857,2025-167AA,2026-06-25T19:07:28.093152,15.34338076,.0000624,53.1572,239.3814,86.2039,273.9035,0,U,65102,999,5009,.52438E-3,.17347E-3,0
STARLINK-34887,2025-167AB,2026-06-25T13:27:05.421888,15.34418616,.0000643,53.1568,244.3109,137.5157,222.5895,0,U,65103,999,5001,.70523E-3,.2354E-3,0
STARLINK-34481,2025-167AC,2026-06-25T13:58:47.040096,15.34405488,.0001128,53.1585,240.1759,78.3562,281.7567,0,U,65104,999,5006,.13244E-2,.44647E-3,0
STARLINK-34545,2025-167AD,2026-06-25T10:54:13.986720,15.34403657,.0000808,53.1594,240.7972,57.5301,302.5779,0,U,65105,999,5005,.84756E-3,.28372E-3,0
HULIANWANG DIGUI-49,2025-168A,2026-06-25T19:22:13.256832,13.29320590,.0008488,50.0039,295.0509,131.4860,228.6742,0,U,65106,999,4383,.67854E-4,-.93E-6,0
HULIANWANG DIGUI-50,2025-168B,2026-06-25T20:58:22.431072,13.29320240,.0009142,50.0010,294.6557,118.0514,242.1284,0,U,65107,999,4384,.72177E-4,-.91E-6,0
