STARLINK-34780          
1 65074U 25165U   26176.71810903 -.00003301  00000+0 -22499-3 0  9999
2 65074  97.3123 252.3978 0001571 154.3060 205.8246 15.05644453 51042
STARLINK-34771          
1 65078U 25167A   26176.50839220  .00018876  00000+0  64752-3 0  9994
2 65078  53.1597 243.3279 0001050  71.9038 288.2077 15.30214242 50027
STARLINK-34634          
1 65079U 25167B   26176.58511243  .00054668  00000+0  16165-2 0  9998
2 65079  53.1585 241.6796 0001425  93.0344 267.0822 15.34416612 50056
STARLINK-34267          
1 65080U 25167C   26176.58719515  .00040604  00000+0  12060-2 0  9997
2 65080  53.1587 241.6921 0001270  71.6467 288.4673 15.34411101 51270
STARLINK-34561          
1 65081U 25167D   26176.50100093  .00025786  00000+0  87936-3 0  9994
2 65081  53.1575 243.2802 0001133 124.9107 235.2001 15.30213581 51278
STARLINK-34626          
1 65082U 25167E   26176.58881137  .00033601  00000+0  10010-2 0  9991
2 65082  53.1584 240.3053 0001158  81.2009 278.9125 15.34406597 50071
STARLINK-34247          
1 65083U 25167F   26176.44941122  .00020420  00000+0  69935-3 0  9994
2 65083  53.1585 243.6703 0001183  76.6196 283.4937 15.30214200 50014
STARLINK-34601          
1 65084U 25167G   26176.58669969  .00038222  00000+0  11365-2 0  9998
2 65084  53.1586 240.2069 0001192  75.7559 284.3576 15.34403106 50060
STARLINK-34822          
1 65086U 25167J   26176.58276933  .00018648  00000+0  63955-3 0  9998
2 65086  53.1590 245.8707 0001235  85.5103 274.6038 15.30231465 49997
STARLINK-34686          
1 65087U 25167K   26176.57961336  .00022991  00000+0  78553-3 0  9992
2 65087  53.1587 245.8524 0000964  76.7998 283.3111 15.30217675 49999
STARLINK-34594          
1 65088U 25167L   26176.57644676  .00022489  00000+0  76864-3 0  9993
2 65088  53.1585 245.8333 0001017  90.5752 269.5365 15.30221235 49992
STARLINK-34665          
1 65089U 25167M   26176.50796536  .00017876  00000+0  61388-3 0  9999
2 65089  53.1574 246.1148 0001376 137.1496 222.9612 15.30217752 49986
STARLINK-34673          
1 65090U 25167N   26176.57011611  .00018544  00000+0  63647-3 0  9995
2 65090  53.1569 245.7920 0000953 305.4060  54.6851 15.30210164 49998
STARLINK-34648          
1 65091U 25167P   26176.83335647 -.00019629  00000+0 -57146-3 0  9997
2 65091  53.1599 239.0983 0000854  60.3307 199.7619 15.34392865  5794
STARLINK-34640          
1 65092U 25167Q   26176.56589635  .00019593  00000+0  67170-3 0  9992
2 65092  53.1570 245.7615 0000974 106.4541 253.6566 15.30210342 49991
STARLINK-34266          
1 65093U 25167R   26176.84095693 -.00096017  00000+0 -28339-2 0  9991
2 65093  53.1598 238.9456 0005189  39.2447 320.8931 15.34746506 50119
STARLINK-34769          
1 65094U 25167S   26176.83335647 -.00022573  00000+0 -65907-3 0  9996
2 65094  53.1585 239.1894 0000952  78.1422 135.4487 15.34394398  5847
STARLINK-34768          
1 65095U 25167T   26176.59721631  .00026900  00000+0  80429-3 0  9994
2 65095  53.1582 240.2700 0000986  84.4174 275.6941 15.34405643 50078
STARLINK-34759          
1 65096U 25167U   26176.46484094  .00027524  00000+0  82227-3 0  9991
2 65096  53.1582 240.8643 0001679  92.4165 267.7030 15.34418236 50051
STARLINK-34741          
1 65097U 25167V   26176.46273867  .00023359  00000+0  70009-3 0  9993
2 65097  53.1586 240.8518 0001080  92.9151 267.1976 15.34410799 50052
STARLINK-34764          
1 65098U 25167W   26176.45537270  .00028327  00000+0  84582-3 0  9995
2 65098  53.1584 244.3696 0001192  70.7933 289.3198 15.34419677 50004
STARLINK-34815          
1 65099U 25167X   26176.57934263  .00026798  00000+0  80054-3 0  9992
2 65099  53.1583 243.7209 0001196  77.0071 283.1065 15.34434895 50020
STARLINK-34814          
1 65100U 25167Y   26176.59826769  .00039819  00000+0  11832-2 0  9993
2 65100  53.1581 243.8391 0001308  78.2445 281.8704 15.34404929 50027
STARLINK-34285          
1 65101U 25167Z   26176.61930477  .00020373  00000+0  61218-3 0  9998
2 65101  53.1574 243.9676 0001195  85.2896 274.8243 15.34414701 50028
STARLINK-34857          
1 65102U 25167AA  26176.79685293  .00017347  00000+0  52438-3 0  9992
2 65102  53.1572 239.3814 0000624  86.2039 273.9035 15.34338076 50092
STARLINK-34887          
1 65103U 25167AB  26176.56047942  .00023540  00000+0  70523-3 0  9998
2 65103  53.1568 244.3109 0000643 137.5157 222.5895 15.34418616 50018
STARLINK-34481          
1 65104U 25167AC  26176.58248889  .00044647  00000+0  13244-2 0  9991
2 65104  53.1585 240.1759 0001128  78.3562 281.7567 15.34405488 50065
STARLINK-34545          
1 65105U 25167AD  26176.45432855  .00028372  00000+0  84756-3 0  9990
2 65105  53.1594 240.7972 0000808  57.5301 302.5779 15.34403657 50055
HULIANWANG DIGUI-49     
1 65106U 25168A   26176.80709788 -.00000093  00000+0  67854-4 0  9995
2 65106  50.0039 295.0509 0008488 131.4860 228.6742 13.29320590 43831
HULIANWANG DIGUI-50     
1 65107U 25168B   26176.87387073 -.00000091  00000+0  72177-4 0  9994
2 65107  50.0010 294.6557 0009142 118.0514 242.1284 13.29320240 43849
